2023-072F               
1 56748U 23072F   23165.47857552  .00005145  00000+0  34022-3 0  9992
2 56748  97.5312 352.3906 0009024 235.4940 124.5437 15.07772053  3027
2023-072G               
1 56749U 23072G   23165.47662757  .00006247  00000+0  41034-3 0  9999
2 56749  97.5321 352.3949 0009426 238.5092 121.5215 15.07934702  3025
2023-072H               
1 56750U 23072H   23164.59373674  .00003995  00000+0  21877-3 0  9990
2 56750  97.5383 351.7362 0011281 242.2944 117.7144 15.14754056  2901
AXIOM-2 DEB             
1 56751U 23070B   23155.18545233  .00137659  00000+0  93325-3 0  9998
2 56751  51.4359  32.6116 0064812 169.8500 272.9083 15.71117998   653
ELECTRON KICK STAGE R/B 
1 56752U 23073A   23164.86134796  .00009613  00000+0  62519-3 0  9994
2 56752  32.7360  88.9825 0011938  29.5067 330.6274 15.06913119  2822
TROPICS-03              
1 56753U 23073B   23164.86390591  .00007436  00000+0  48674-3 0  9999
2 56753  32.7362  89.0081 0010375  40.9250 319.2196 15.06660112  2802
TROPICS-07              
1 56754U 23073C   23164.91636527  .00008413  00000+0  53370-3 0  9993
2 56754  32.7366  88.4750 0014917  33.9226 326.2395 15.07776542  2832
ELECTRON R/B            
1 56755U 23073D   23164.18380815  .00004645  00000+0  29432-3 0  9994
2 56755  35.4639  97.4969 0024739 339.9216  20.0528 15.08251166  2725
COSMOS 2569             
1 56756U 23074A   23165.45863337  .00004646  00000+0  22695-3 0  9997
2 56756  97.4382 359.9538 0001551  87.6942 272.4470 15.18737288  2822
ARABSAT-7B (BADR-8)     
1 56757U 23075A   23164.26211603 -.00000083  00000+0 -93057-1 0  9991
2 56757  20.6023 145.3313 7845713 184.0467 197.9346  1.05843304   197
FALCON 9 R/B            
1 56758U 23075B   23164.18101651  .00000022  00000+0  66911-3 0  9996
2 56758  27.8416 145.1665 8176876 184.7239 153.2679  1.20342794   191
IRNSS-1J (NVS-01)       
1 56759U 23076A   23164.73184111 -.00000332  00000+0  00000+0 0  9999
2 56759   4.9464 273.6459 0004317 359.3633  21.7637  1.00272307    91
GSLV R/B                
1 56760U 23076B   23165.18852120  .00117246  92437-6  41430-2 0  9992
2 56760  19.1972 263.8257 7505214 188.6290 141.1081  2.04272268   319
SHENZHOU-16 (SZ-16)     
1 56761U 23077A   23164.45194587  .00012644  00000+0  15560-3 0  9999
2 56761  41.4732 178.5737 0002283 342.2024  17.8735 15.60037257121256
STARLINK-6197           
1 56767U 23078A   23164.91667824 -.00860265  00000+0 -59391-2 0  9997
2 56767  70.0033  15.0135 0003298 271.8148 270.5770 15.76611210  1306
STARLINK-6198           
1 56768U 23078B   23164.91667824 -.00861784  00000+0 -59365-2 0  9996
2 56768  70.0056  15.0133 0003335 272.0855 272.6443 15.76664447  1300
STARLINK-5978           
1 56769U 23078C   23164.91667824 -.00861355  00000+0 -59418-2 0  9990
2 56769  70.0048  15.0133 0003288 273.7042 269.6235 15.76632553  1303
STARLINK-6342           
1 56770U 23078D   23164.91667824 -.00860329  00000+0 -59370-2 0  9999
2 56770  70.0049  15.0147 0003267 273.4776 269.3835 15.76621423  1306
STARLINK-6339           
1 56771U 23078E   23164.91667824 -.00861138  00000+0 -59297-2 0  9997
2 56771  70.0034  15.0102 0003303 273.8358 271.3825 15.76671987  1305
STARLINK-6275           
1 56772U 23078F   23164.91667824 -.00861685  00000+0 -59414-2 0  9996
2 56772  70.0043  15.0132 0003318 272.6956 271.1026 15.76643188  1309
STARLINK-6296           
1 56773U 23078G   23164.91667824 -.00861269  00000+0 -59279-2 0  9994
2 56773  70.0033  15.0094 0003292 271.7441 273.9363 15.76682717  1301
STARLINK-6190           
1 56774U 23078H   23164.91667824 -.00861054  00000+0 -59340-2 0  9996
2 56774  70.0041  15.0121 0003300 271.8961 272.3646 15.76653292  1303
STARLINK-6292           
1 56775U 23078J   23164.91667824 -.00849871  00000+0 -58305-2 0  9990
2 56775  70.0034  15.0067 0003345 274.4121 273.6243 15.76724747  1302
STARLINK-6274           
1 56776U 23078K   23164.91667824 -.00859054  00000+0 -59089-2 0  9995
2 56776  70.0042  15.0100 0003268 273.5048 272.6404 15.76691419  1309
STARLINK-5582           
1 56777U 23078L   23164.91667824 -.00860700  00000+0 -59026-2 0  9997
2 56777  70.0030  15.0046 0003292 273.3567 276.0793 15.76762575  1308
STARLINK-6304           
1 56778U 23078M   23164.91667824 -.00860343  00000+0 -59157-2 0  9996
2 56778  70.0049  15.0099 0003299 274.3518 272.2694 15.76702369  1304
STARLINK-6231           
1 56779U 23078N   23164.91667824 -.00859361  00000+0 -58790-2 0  9997
2 56779  70.0029  15.0016 0003309 274.3335 277.4216 15.76813896  1306
STARLINK-5963           
1 56780U 23078P   23164.91667824 -.00861732  00000+0 -59074-2 0  9990
2 56780  70.0035  15.0048 0003295 272.6646 277.2339 15.76773987  1300
STARLINK-5989           
1 56781U 23078Q   23164.91667824 -.00861858  00000+0 -58871-2 0  9994
2 56781  70.0020  14.9988 0003289 273.2337 280.3950 15.76855046  1304
STARLINK-6352           
1 56782U 23078R   23164.91667824 -.00856341  00000+0 -58838-2 0  9999
2 56782  70.0044  15.0087 0003269 273.4734 273.6275 15.76708790  1302
STARLINK-6357           
1 56783U 23078S   23164.91667824 -.00861122  00000+0 -59108-2 0  9994
2 56783  70.0040  15.0057 0003315 272.0155 276.4823 15.76743258  1308
STARLINK-6354           
1 56784U 23078T   23164.91667824 -.00862388  00000+0 -59254-2 0  9992
2 56784  70.0046  15.0082 0003336 271.5103 276.0538 15.76723913  1308
STARLINK-5931           
1 56785U 23078U   23164.91667824 -.00861471  00000+0 -58896-2 0  9996
2 56785  70.0039  15.0009 0003276 272.6711 280.0256 15.76834559  1301
STARLINK-6341           
1 56786U 23078V   23164.91667824 -.00861723  00000+0 -59126-2 0  9994
2 56786  70.0050  15.0067 0003300 273.4291 275.5328 15.76753909  1307
STARLINK-6326           
1 56787U 23078W   23164.91667824 -.00861472  00000+0 -58970-2 0  9992
2 56787  70.0034  15.0019 0003325 271.1897 280.0944 15.76805747  1304
STARLINK-6336           
1 56788U 23078X   23165.50001157 -.00904376  00000+0 -65406-2 0  9993
2 56788  70.0041  13.3489 0003572 264.6544 354.7660 15.75675655  2548
STARLINK-6325           
1 56789U 23078Y   23164.91667824 -.00861119  00000+0 -58680-2 0  9990
2 56789  70.0039  14.9968 0003334 273.1130 282.8371 15.76906314  1300
STARLINK-6345           
1 56790U 23078Z   23164.91667824 -.00862077  00000+0 -59043-2 0  9990
2 56790  70.0039  15.0035 0003310 271.5476 279.2736 15.76795533  1302
STARLINK-5977           
1 56791U 23078AA  23164.91667824 -.00862609  00000+0 -58868-2 0  9996
2 56791  70.0027  14.9975 0003323 271.9096 282.6359 15.76877354  1308
STARLINK-6046           
1 56792U 23078AB  23164.91667824 -.00861856  00000+0 -58945-2 0  9996
2 56792  70.0025  15.0008 0003314 272.1962 280.0165 15.76826448  1306
STARLINK-6052           
1 56793U 23078AC  23164.91667824 -.00861161  00000+0 -58553-2 0  9991
2 56793  70.0032  14.9933 0003306 273.0219 285.2512 15.76956485  1304
STARLINK-6060           
1 56794U 23078AD  23164.91667824 -.00861745  00000+0 -58833-2 0  9991
2 56794  70.0045  15.0001 0003304 271.7762 282.3099 15.76866167  1308
STARLINK-6061           
1 56795U 23078AE  23165.50001157 -.00895389  00000+0 -64043-2 0  9990
2 56795  70.0028  13.3337 0003439 265.6906   4.9116 15.75904152  2545
STARLINK-6049           
1 56796U 23078AF  23164.91667824 -.00861307  00000+0 -58855-2 0  9991
2 56796  70.0031  14.9998 0003296 272.3115 280.8455 15.76845241  1306
STARLINK-6058           
1 56797U 23078AG  23164.91667824 -.00856592  00000+0 -58273-2 0  9996
2 56797  70.0020  14.9936 0003277 274.0306 283.3159 15.76932862  1302
STARLINK-6068           
1 56798U 23078AH  23164.91667824 -.00861653  00000+0 -58773-2 0  9996
2 56798  70.0032  14.9976 0003309 271.0977 283.9189 15.76886376  1304
STARLINK-5953           
1 56799U 23078AJ  23164.91667824 -.00861417  00000+0 -58281-2 0  9999
2 56799  70.0029  14.9868 0003316 272.3122 291.0524 15.77068211  1309
STARLINK-6036           
1 56800U 23078AK  23164.91667824 -.00862788  00000+0 -58827-2 0  9990
2 56800  70.0034  14.9973 0003338 273.3986 282.0777 15.76897971  1300
STARLINK-6087           
1 56801U 23078AL  23164.91667824 -.00863139  00000+0 -58589-2 0  9997
2 56801  70.0029  14.9909 0003320 272.9672 287.1507 15.76999277  1301
STARLINK-6070           
1 56802U 23078AM  23164.91667824 -.00862216  00000+0 -58704-2 0  9992
2 56802  70.0029  14.9952 0003339 271.1407 285.7229 15.76928562  1301
STARLINK-6029           
1 56803U 23078AN  23164.91667824 -.00861603  00000+0 -58529-2 0  9997
2 56803  70.0028  14.9918 0003324 273.0713 286.1177 15.76978183  1309
STARLINK-6069           
1 56804U 23078AP  23165.50001157 -.00895120  00000+0 -64308-2 0  9998
2 56804  70.0033  13.3402 0003425 265.0802   0.6684 15.75803128  2543
STARLINK-6064           
1 56805U 23078AQ  23165.50001157 -.00900182  00000+0 -64556-2 0  9999
2 56805  70.0023  13.3360 0003482 263.3179   4.8606 15.75856753  2549
STARLINK-6072           
1 56806U 23078AR  23165.50001157 -.00894211  00000+0 -64153-2 0  9998
2 56806  70.0028  13.3383 0003467 263.4599   3.7499 15.75831824  2540
STARLINK-6073           
1 56807U 23078AS  23165.50001157 -.00899851  00000+0 -64268-2 0  9991
2 56807  70.0024  13.3309 0003444 265.5595   6.9647 15.75949359  2542
STARLINK-6042           
1 56808U 23078AT  23165.50001157 -.00895465  00000+0 -63960-2 0  9997
2 56808  70.0023  13.3321 0003452 265.1054   6.9383 15.75935497  2546
STARLINK-6040           
1 56809U 23078AU  23165.50001157 -.00895978  00000+0 -64029-2 0  9994
2 56809  70.0015  13.3312 0003500 264.7260   6.8328 15.75924811  2542
STARLINK-6031           
1 56810U 23078AV  23165.16667824 -.00950217  00000+0 -66489-2 0  9997
2 56810  70.0030  14.2820 0003287 272.9126 265.3719 15.76550918  2482
STARLINK-6063           
1 56811U 23078AW  23165.50001157 -.00891648  00000+0 -63555-2 0  9990
2 56811  70.0020  13.3286 0003446 264.5784   9.4086 15.75972355  2545
